{"type": "FeatureCollection", "features": [ {"type": "Feature", "properties": {"norad_id": 33867, "name": "IRIDIUM 33 DEB", "group": "iridium-33-debris", "lat": -4.181050662067204, "lon": -8.349976422737704, "alt_km": 387.4640078383254, "timestamp": "2025-12-09T05:43:21.110492+00:00", "meta": {"OBJECT_NAME": "IRIDIUM 33 DEB", "OBJECT_ID": "1997-051AL", "EPOCH": "2025-12-08T12:48:58.471776", "MEAN_MOTION": 15.60555774, "ECCENTRICITY": 0.0012895, "INCLINATION": 86.363, "RA_OF_ASC_NODE": 352.2785, "ARG_OF_PERICENTER": 90.3716, "MEAN_ANOMALY": 269.9027, "EPHEMERIS_TYPE": 0, "CLASSIFICATION_TYPE": "U", "NORAD_CAT_ID": 33867, "ELEMENT_SET_NO": 999, "REV_AT_EPOCH": 89445, "BSTAR": 0.007562, "MEAN_MOTION_DOT": 0.00677686, "MEAN_MOTION_DDOT": 0}, "tle": {"line1": "1 33867U 97051AL  25342.53401009  .00677686  00000+0  75620-2 0  9998", "line2": "2 33867  86.3630 352.2785 0012895  90.3716 269.9027 15.60555774894458"}}, "geometry": {"type": "Point", "coordinates": [-8.349976422737704, -4.181050662067204]}}, {"type": "Feature", "properties": {"norad_id": 33870, "name": "IRIDIUM 33 DEB", "group": "iridium-33-debris", "lat": 66.35379633509916, "lon": -128.5637602894026, "alt_km": 729.3623629785443, "timestamp": "2025-12-09T05:43:21.110504+00:00", "meta": {"OBJECT_NAME": "IRIDIUM 33 DEB", "OBJECT_ID": "1997-051AP", "EPOCH": "2025-12-08T18:08:27.400416", "MEAN_MOTION": 14.45819097, "ECCENTRICITY": 0.0021029, "INCLINATION": 86.3748, "RA_OF_ASC_NODE": 59.9683, "ARG_OF_PERICENTER": 191.2214, "MEAN_ANOMALY": 292.2198, "EPHEMERIS_TYPE": 0, "CLASSIFICATION_TYPE": "U", "NORAD_CAT_ID": 33870, "ELEMENT_SET_NO": 999, "REV_AT_EPOCH": 88079, "BSTAR": 0.0014024, "MEAN_MOTION_DOT": 5.008e-05, "MEAN_MOTION_DDOT": 0}, "tle": {"line1": "1 33870U 97051AP  25342.75587269  .00005008  00000+0  14024-2 0  9993", "line2": "2 33870  86.3748  59.9683 0021029 191.2214 292.2198 14.45819097880796"}}, "geometry": {"type": "Point", "coordinates": [-128.5637602894026, 66.35379633509916]}}, {"type": "Feature", "properties": {"norad_id": 33881, "name": "IRIDIUM 33 DEB", "group": "iridium-33-debris", "lat": -27.653663768572446, "lon": -69.8388607753718, "alt_km": 670.0069306948326, "timestamp": "2025-12-09T05:43:21.110516+00:00", "meta": {"OBJECT_NAME": "IRIDIUM 33 DEB", "OBJECT_ID": "1997-051BA", "EPOCH": "2025-12-08T19:37:03.734976", "MEAN_MOTION": 14.56459418, "ECCENTRICITY": 0.0061417, "INCLINATION": 86.387, "RA_OF_ASC_NODE": 108.4468, "ARG_OF_PERICENTER": 187.3743, "MEAN_ANOMALY": 333.7931, "EPHEMERIS_TYPE": 0, "CLASSIFICATION_TYPE": "U", "NORAD_CAT_ID": 33881, "ELEMENT_SET_NO": 999, "REV_AT_EPOCH": 87443, "BSTAR": 0.003034, "MEAN_MOTION_DOT": 0.00013864, "MEAN_MOTION_DDOT": 0}, "tle": {"line1": "1 33881U 97051BA  25342.81740434  .00013864  00000+0  30340-2 0  9995", "line2": "2 33881  86.3870 108.4468 0061417 187.3743 333.7931 14.56459418874432"}}, "geometry": {"type": "Point", "coordinates": [-69.8388607753718, -27.653663768572446]}}, {"type": "Feature", "properties": {"norad_id": 33884, "name": "IRIDIUM 33 DEB", "group": "iridium-33-debris", "lat": -71.15676973571371, "lon": -157.87803456699746, "alt_km": 644.6514971640199, "timestamp": "2025-12-09T05:43:21.110528+00:00", "meta": {"OBJECT_NAME": "IRIDIUM 33 DEB", "OBJECT_ID": "1997-051BD", "EPOCH": "2025-12-08T14:31:15.449088", "MEAN_MOTION": 14.77305834, "ECCENTRICITY": 0.0010135, "INCLINATION": 86.3691, "RA_OF_ASC_NODE": 11.6845, "ARG_OF_PERICENTER": 339.4756, "MEAN_ANOMALY": 145.6855, "EPHEMERIS_TYPE": 0, "CLASSIFICATION_TYPE": "U", "NORAD_CAT_ID": 33884, "ELEMENT_SET_NO": 999, "REV_AT_EPOCH": 88786, "BSTAR": 0.0017784, "MEAN_MOTION_DOT": 0.00012665, "MEAN_MOTION_DDOT": 0}, "tle": {"line1": "1 33884U 97051BD  25342.60503992  .00012665  00000+0  17784-2 0  9996", "line2": "2 33884  86.3691  11.6845 0010135 339.4756 145.6855 14.77305834887866"}}, "geometry": {"type": "Point", "coordinates": [-157.87803456699746, -71.15676973571371]}}, {"type": "Feature", "properties": {"norad_id": 33886, "name": "IRIDIUM 33 DEB", "group": "iridium-33-debris", "lat": -22.515915543435135, "lon": 67.1998090762004, "alt_km": 775.8554557756279, "timestamp": "2025-12-09T05:43:21.110540+00:00", "meta": {"OBJECT_NAME": "IRIDIUM 33 DEB", "OBJECT_ID": "1997-051BF", "EPOCH": "2025-12-08T18:39:56.221056", "MEAN_MOTION": 14.36045449, "ECCENTRICITY": 0.0012112, "INCLINATION": 86.383, "RA_OF_ASC_NODE": 68.8962, "ARG_OF_PERICENTER": 256.974, "MEAN_ANOMALY": 220.2122, "EPHEMERIS_TYPE": 0, "CLASSIFICATION_TYPE": "U", "NORAD_CAT_ID": 33886, "ELEMENT_SET_NO": 999, "REV_AT_EPOCH": 87995, "BSTAR": 0.00040017, "MEAN_MOTION_DOT": 1.183e-05, "MEAN_MOTION_DDOT": 0}, "tle": {"line1": "1 33886U 97051BF  25342.77773404  .00001183  00000+0  40017-3 0  9992", "line2": "2 33886  86.3830  68.8962 0012112 256.9740 220.2122 14.36045449879956"}}, "geometry": {"type": "Point", "coordinates": [67.1998090762004, -22.515915543435135]}}, {"type": "Feature", "properties": {"norad_id": 33887, "name": "IRIDIUM 33 DEB", "group": "iridium-33-debris", "lat": -78.3794360026681, "lon": -156.78271611375732, "alt_km": 772.2746165166727, "timestamp": "2025-12-09T05:43:21.110551+00:00", "meta": {"OBJECT_NAME": "IRIDIUM 33 DEB", "OBJECT_ID": "1997-051BG", "EPOCH": "2025-12-08T12:25:25.149216", "MEAN_MOTION": 14.37215851, "ECCENTRICITY": 0.00041571, "INCLINATION": 86.3048, "RA_OF_ASC_NODE": 5.2119, "ARG_OF_PERICENTER": 246.101, "MEAN_ANOMALY": 245.8633, "EPHEMERIS_TYPE": 0, "CLASSIFICATION_TYPE": "U", "NORAD_CAT_ID": 33887, "ELEMENT_SET_NO": 999, "REV_AT_EPOCH": 88104, "BSTAR": 0.00027289302, "MEAN_MOTION_DOT": 8.32e-06, "MEAN_MOTION_DDOT": 0}, "tle": {"line1": "1 33887U 97051BG  25342.51765219  .00000832  00000+0  27289-3 0  9996", "line2": "2 33887  86.3048   5.2119 0004157 246.1010 245.8633 14.37215851881048"}}, "geometry": {"type": "Point", "coordinates": [-156.78271611375732, -78.3794360026681]}}, {"type": "Feature", "properties": {"norad_id": 33953, "name": "IRIDIUM 33 DEB", "group": "iridium-33-debris", "lat": -66.85856166687591, "lon": -116.19259715468351, "alt_km": 724.8812881456797, "timestamp": "2025-12-09T05:43:21.110562+00:00", "meta": {"OBJECT_NAME": "IRIDIUM 33 DEB", "OBJECT_ID": "1997-051BN", "EPOCH": "2025-12-08T15:57:49.131936", "MEAN_MOTION": 14.55261918, "ECCENTRICITY": 0.0018478, "INCLINATION": 86.3841, "RA_OF_ASC_NODE": 55.5477, "ARG_OF_PERICENTER": 115.1859, "MEAN_ANOMALY": 10.2465, "EPHEMERIS_TYPE": 0, "CLASSIFICATION_TYPE": "U", "NORAD_CAT_ID": 33953, "ELEMENT_SET_NO": 999, "REV_AT_EPOCH": 88244, "BSTAR": 0.0018443, "MEAN_MOTION_DOT": 8.026e-05, "MEAN_MOTION_DDOT": 0}, "tle": {"line1": "1 33953U 97051BN  25342.66515199  .00008026  00000+0  18443-2 0  9990", "line2": "2 33953  86.3841  55.5477 0018478 115.1859  10.2465 14.55261918882442"}}, "geometry": {"type": "Point", "coordinates": [-116.19259715468351, -66.85856166687591]}}, {"type": "Feature", "properties": {"norad_id": 33960, "name": "IRIDIUM 33 DEB", "group": "iridium-33-debris", "lat": 36.54969806750133, "lon": -66.05148390964374, "alt_km": 607.0124795411239, "timestamp": "2025-12-09T05:43:21.110573+00:00", "meta": {"OBJECT_NAME": "IRIDIUM 33 DEB", "OBJECT_ID": "1997-051BV", "EPOCH": "2025-12-08T09:06:17.165376", "MEAN_MOTION": 14.84831157, "ECCENTRICITY": 0.00073038, "INCLINATION": 86.2539, "RA_OF_ASC_NODE": 291.5693, "ARG_OF_PERICENTER": 68.5761, "MEAN_ANOMALY": 59.0624, "EPHEMERIS_TYPE": 0, "CLASSIFICATION_TYPE": "U", "NORAD_CAT_ID": 33960, "ELEMENT_SET_NO": 999, "REV_AT_EPOCH": 88802, "BSTAR": 0.003761271, "MEAN_MOTION_DOT": 0.0003209, "MEAN_MOTION_DDOT": 0}, "tle": {"line1": "1 33960U 97051BV  25342.37936534  .00032090  00000+0  37613-2 0  9994", "line2": "2 33960  86.2539 291.5693 0007303  68.5761  59.0624 14.84831157888021"}}, "geometry": {"type": "Point", "coordinates": [-66.05148390964374, 36.54969806750133]}}, {"type": "Feature", "properties": {"norad_id": 33966, "name": "IRIDIUM 33 DEB", "group": "iridium-33-debris", "lat": 83.66730548892228, "lon": 82.17523425085659, "alt_km": 721.738569521166, "timestamp": "2025-12-09T05:43:21.110585+00:00", "meta": {"OBJECT_NAME": "IRIDIUM 33 DEB", "OBJECT_ID": "1997-051CB", "EPOCH": "2025-12-08T16:37:01.548192", "MEAN_MOTION": 14.49569326, "ECCENTRICITY": 0.0006946, "INCLINATION": 86.3923, "RA_OF_ASC_NODE": 47.7641, "ARG_OF_PERICENTER": 202.0511, "MEAN_ANOMALY": 275.0616, "EPHEMERIS_TYPE": 0, "CLASSIFICATION_TYPE": "U", "NORAD_CAT_ID": 33966, "ELEMENT_SET_NO": 999, "REV_AT_EPOCH": 88383, "BSTAR": 0.00096319, "MEAN_MOTION_DOT": 3.715e-05, "MEAN_MOTION_DDOT": 0}, "tle": {"line1": "1 33966U 97051CB  25342.69237903  .00003715  00000+0  96319-3 0  9990", "line2": "2 33966  86.3923  47.7641 0006946 202.0511 275.0616 14.49569326883831"}}, "geometry": {"type": "Point", "coordinates": [82.17523425085659, 83.66730548892228]}}, {"type": "Feature", "properties": {"norad_id": 34071, "name": "IRIDIUM 33 DEB", "group": "iridium-33-debris", "lat": 26.8762593913498, "lon": -162.50599552848902, "alt_km": 720.9250913700489, "timestamp": "2025-12-09T05:43:21.110596+00:00", "meta": {"OBJECT_NAME": "IRIDIUM 33 DEB", "OBJECT_ID": "1997-051CE", "EPOCH": "2025-12-08T15:45:53.538624", "MEAN_MOTION": 14.49438638, "ECCENTRICITY": 0.0009791, "INCLINATION": 86.3456, "RA_OF_ASC_NODE": 19.6028, "ARG_OF_PERICENTER": 118.4597, "MEAN_ANOMALY": 241.7595, "EPHEMERIS_TYPE": 0, "CLASSIFICATION_TYPE": "U", "NORAD_CAT_ID": 34071, "ELEMENT_SET_NO": 999, "REV_AT_EPOCH": 88275, "BSTAR": 0.0010328, "MEAN_MOTION_DOT": 3.973e-05, "MEAN_MOTION_DDOT": 0}, "tle": {"line1": "1 34071U 97051CE  25342.65686966  .00003973  00000+0  10328-2 0  9992", "line2": "2 34071  86.3456  19.6028 0009791 118.4597 241.7595 14.49438638882759"}}, "geometry": {"type": "Point", "coordinates": [-162.50599552848902, 26.8762593913498]}}]}